COSMOS 1892             
1 18421U 87088A   20355.71688298  .00000692  00000-0  32887-4 0  9990
2 18421  82.5008  89.1833 0016108 135.3687 224.8846 15.17385419812797
SL-14 R/B               
1 18749U 88001B   20355.80839021  .00000088  00000-0  77698-5 0  9990
2 18749  82.5132 183.0036 0019870  47.3910 323.2434 14.83238894759497
COSMOS 1933             
1 18958U 88020A   20355.84379573  .00000008  00000-0 -15208-5 0  9990
2 18958  82.5293 305.5867 0010122 232.4176 127.6132 15.03823689763099
SL-3 R/B                
1 19046U 88032B   20355.83599334  .00000213  00000-0  20140-4 0  9997
2 19046  97.3953   8.5465 0034723 292.7065  67.0492 15.02827549764958
SL-16 R/B               
1 19120U 88039B   20356.10684020 -.00000148  00000-0 -47390-4 0  9990
2 19120  71.0140 134.1171 0021276  15.1161 345.0595 14.19217404688409
COSMOS 1953             
1 19210U 88050A   20356.14761473  .00000366  00000-0  22991-4 0  9995
2 19210  82.5178 228.5884 0012877 196.4740 163.6071 15.06123982770891
SL-8 R/B                
1 19257U 88053B   20356.15975458  .00000070  00000-0  31965-4 0  9993
2 19257  74.0491  17.6795 0021576 308.2449 110.3921 14.37495427703112
COSMOS 1975             
1 19573U 88093A   20356.12558458  .00000565  00000-0  37772-4 0  9993
2 19573  82.5184 183.3568 0012525 244.5461 115.4470 15.05013388752729
SL-14 R/B               
1 19574U 88093B   20356.14629613  .00000073  00000-0  59871-5 0  9997
2 19574  82.5321  25.4723 0020967 202.6280 214.6503 14.83350142739636
SL-16 R/B               
1 19650U 88102B   20355.86695807 -.00000155  00000-0 -54382-4 0  9993
2 19650  70.9984 197.9198 0013336  21.5623 338.6059 14.15798264657266
INTERCOSMOS 24          
1 20261U 89080A   20355.79981297  .00000202  00000-0  54534-4 0  9992
2 20261  82.6050 259.6796 1203126  17.8740 346.1098 12.56159543427397
SL-14 R/B               
1 20262U 89080C   20355.58723103  .00000012  00000-0  28803-6 0  9991
2 20262  82.5935 314.6880 1236233 212.6859 139.1560 12.48953252422227
DELTA 2 R/B(1)          
1 20303U 89085B   20356.17937302  .00003885  00000-0  12341-3 0  9994
2 20303  35.6366 276.8684 0092153  36.9328 323.7700 15.28234931696631
DELTA 1 R/B             
1 20323U 89089B   20355.88832728  .00000043  00000-0  20219-4 0  9990
2 20323  97.1147 112.1813 0071761   5.7763 354.4245 14.48375260619854
ARIANE 40 R/B           
1 20443U 90005H   20355.90795189 -.00000001  00000-0  14355-4 0  9994
2 20443  98.5542  57.2051 0011164 143.4342 216.7609 14.38110023618911
DELTA 2 R/B(1)          
1 20453U 90008B   20355.90833131  .00002221  00000-0  12587-3 0  9997
2 20453  35.6228 236.5792 0278042  61.6917 301.1555 14.86027691638943
COSMOS 2058             
1 20465U 90010A   20356.00800560  .00000380  00000-0  29816-4 0  9993
2 20465  82.4899  93.8316 0013952 294.2388  65.7377 14.98106689677361
SL-14 R/B               
1 20466U 90010B   20355.83515952  .00000078  00000-0  68974-5 0  9995
2 20466  82.5039 252.3380 0022077  85.5445 274.8291 14.81404309646327
SL-14 R/B               
1 20511U 90018B   20355.84413492  .00000071  00000-0  63195-5 0  9994
2 20511  82.5225 199.5520 0016374 223.1161 147.3588 14.80059744640685
HST                     
1 20580U 90037B   20355.88572161  .00000500  00000-0  19388-4 0  9995
2 20580  28.4684 166.4946 0002549 302.0787 173.5006 15.09514802484241
SL-16 R/B               
1 20625U 90046B   20356.10773583 -.00000182  00000-0 -69909-4 0  9994
2 20625  70.9998 336.4155 0016266 311.8475  48.1258 14.14665213579266
COSMOS 2084             
1 20663U 90055A   20355.89430945  .00000089  00000-0  26643-4 0  9995
2 20663  62.7948 265.6624 0042966 333.3668  26.5218 14.92165390651179
SL-6 R/B(2)             
1 20666U 90055D   20355.91563656 -.00000019  00000-0  16468-4 0  9995
2 20666  62.7836 181.5619 0073200  13.3399 346.9607 14.92411546653124
SL-8 R/B                
1 20775U 90078B   20355.73702620  .00001886  00000-0  90983-4 0  9993
2 20775  82.9275  72.9529 0569936 337.4741  20.2292 14.35092570532459
SL-8 R/B                
1 21088U 91006B   20356.20323023 -.00000046  00000-0 -62003-4 0  9993
2 21088  82.9415 146.3876 0021881 331.0028 202.0438 13.77147425502188
OKEAN-3                 
1 21397U 91039A   20355.77062389  .00000298  00000-0  26143-4 0  9990
2 21397  82.5212 359.5847 0016179 265.8193  94.1178 14.93010832580063
COSMOS 2151             
1 21422U 91042A   20355.88175713  .00000243  00000-0  21350-4 0  9996
2 21422  82.5008 105.4562 0013387 335.8362  24.2228 14.92191312578688
SL-14 R/B               
1 21423U 91042B   20356.08927799  .00000070  00000-0  62458-5 0  9992
2 21423  82.4934 202.4694 0017901  12.7397 347.4265 14.79809674592303
ERS-1                   
1 21574U 91050A   20355.85589012  .00000039  00000-0  27531-4 0  9991
2 21574  98.6240 309.5013 0034096  92.6012 267.9078 14.37773373541906
ARIANE 40 R/B           
1 21610U 91050F   20355.94592214  .00000013  00000-0  17607-4 0  9995
2 21610  98.4464  63.1323 0004224  70.0454 102.6337 14.40927435544551
INTERCOSMOS 25          
1 21819U 91086A   20356.11893036 -.00000384  00000-0 -79500-4 0  9994
2 21819  82.5936  14.5173 1515267 234.1899 110.8948 12.05207290266788
SL-8 R/B                
1 21876U 92008B   20355.92791933  .00000043  00000-0  28371-4 0  9993
2 21876  82.9275 243.8093 0035961  54.4127 317.5926 13.75670273447510
SL-8 R/B                
1 21938U 92020B   20355.86618080  .00000092  00000-0  80366-4 0  9996
2 21938  82.9296 128.1821 0028693 211.2486 258.3199 13.75291372439290
COSMOS 2219             
1 22219U 92076A   20356.09474600  .00000252  00000-0  15831-3 0  9996
2 22219  71.0599  37.8192 0019903 232.7101 127.2208 14.13647112449512
SL-16 R/B               
1 22220U 92076B   20356.15842081  .00000137  00000-0  92630-4 0  9992
2 22220  70.9997 238.5556 0010919 123.7187 347.1755 14.16464998452447
COSMOS 2221             
1 22236U 92080A   20355.90346378  .00000280  00000-0  27731-4 0  9993
2 22236  82.5083 287.4596 0018164  64.9585 295.3516 14.87988839497007
SL-16 R/B               
1 22285U 92093B   20355.85202814 -.00000283  00000-0 -12121-3 0  9992
2 22285  71.0226  41.4702 0006056 310.1122  49.9470 14.15052629443700
COSMOS 2228             
1 22286U 92094A   20355.96275099  .00000221  00000-0  21149-4 0  9992
2 22286  82.5208 243.8666 0021005 177.5587 182.5737 14.88208673492184
SL-16 R/B               
1 22566U 93016B   20356.17194972 -.00000025  00000-0  11867-4 0  9991
2 22566  71.0081 253.8080 0011413 330.1729  29.8742 14.14971902432752
COSMOS 2242             
1 22626U 93024A   20355.82422907  .00000233  00000-0  22555-4 0  9996
2 22626  82.5225 272.1969 0018799 177.4249 182.7069 14.88060064496579
SL-16 R/B               
1 22803U 93059B   20355.64857475 -.00000097  00000-0 -24244-4 0  9990
2 22803  70.9916  66.8762 0019231 237.0596 122.8678 14.16830335409676
ARIANE 40 R/B           
1 22830U 93061H   20355.86278959 -.00000031  00000-0  54756-5 0  9990
2 22830  98.7412  46.5527 0011774 132.6576 227.5601 14.31462856421490
COSMOS 2278             
1 23087U 94023A   20355.89211341  .00000318  00000-0  19288-3 0  9995
2 23087  71.0518 197.9617 0007330  50.2072 309.9694 14.13817420375548
SL-16 R/B               
1 23088U 94023B   20355.78832810  .00000206  00000-0  13189-3 0  9994
2 23088  70.9985 110.0163 0005158 295.6402  64.4187 14.14682779376667
SL-16 R/B               
1 23343U 94074B   20355.92130778  .00000037  00000-0  12589-4 0  9990
2 23343  97.9744  47.0112 0005485 270.1268 262.9770 14.76853318405930
SL-16 R/B               
1 23405U 94077B   20355.87222628  .00000218  00000-0  13649-3 0  9990
2 23405  70.9842  38.4975 0003386 218.9789 141.1090 14.15227770346720
ERS-2                   
1 23560U 95021A   20356.11002507  .00001235  00000-0  55465-4 0  9995
2 23560  98.5530 175.3988 0002301 250.5515 109.5470 15.23536430370567
ARIANE 40+ R/B          
1 23561U 95021B   20356.14163806  .00000033  00000-0  25990-4 0  9994
2 23561  98.7016  37.9733 0007859  65.3886 358.4748 14.37999836345625
SL-16 R/B               
1 23705U 95058B   20355.91466187 -.00000244  00000-0 -10099-3 0  9995
2 23705  71.0212 217.7311 0011171 152.7351 207.4360 14.15143798298351
SL-16 R/B               
1 24298U 96051B   20355.90649690 -.00000147  00000-0 -53500-4 0  9995
2 24298  70.8389 237.4631 0013202  76.4713 283.7877 14.12482578252681
ORBVIEW 2 (SEASTAR)     
1 24883U 97037A   20355.89534331  .00000054  00000-0  35405-4 0  9992
2 24883  98.6270 108.4207 0001203 274.1491  85.9555 14.33587193235422
SL-16 R/B               
1 25400U 98043G   20355.79462125 -.00000007  00000-0  15246-4 0  9996
2 25400  98.6255 288.4129 0010480 146.5605 213.6239 14.25466860167565
SL-16 R/B               
1 25407U 98045B   20355.93013164 -.00000294  00000-0 -12508-3 0  9992
2 25407  71.0102 225.6981 0005936  33.8888 326.2614 14.15831929157476
ISS (ZARYA)             
1 25544U 98067A   20356.29483582  .00001091  00000-0  27757-4 0  9990
2 25544  51.6442 142.6592 0001560 148.6375 281.4211 15.49205717261020
SL-8 R/B                
1 25723U 99022C   20355.65949924  .00053188  00000-0  21798-3 0  9999
2 25723  48.4101  55.1960 0001027 278.0988  81.9852 15.85400622207079
CZ-4B R/B               
1 25732U 99025C   20356.07718264 -.00000023  00000-0  10725-4 0  9990
2 25732  98.9257  25.9244 0037960  39.8673  13.1101 14.17685801118400
OKEAN-O                 
1 25860U 99039A   20356.12301462  .00000039  00000-0  13228-4 0  9998
2 25860  98.2013  18.2472 0001358  66.8647 293.2705 14.76700053153150
SL-16 R/B               
1 25861U 99039B   20355.90582245  .00000042  00000-0  13320-4 0  9991
2 25861  98.2094   1.7621 0014319 280.0922 140.5824 14.78610184155177
DELTA 2 R/B             
1 25876U 99041E   20356.09188885 -.00000134  00000-0  17970-4 0  9991
2 25876  51.7650 293.5120 0531317 168.4149 192.9586 14.04489855 94875
